$$SOE
2461295.500000000, A.D. 2026-Sep-12 00:00:00.0000, -4.462758362624356E+08, -1.564262805069550E+08, 9.056101703468536E+07,
2461302.500000000, A.D. 2026-Sep-19 00:00:00.0000, -4.418617282440677E+08, -1.648642739446442E+08, 9.371122721676873E+07,
2461309.500000000, A.D. 2026-Sep-26 00:00:00.0000, -4.372546612223791E+08, -1.732302527648240E+08, 9.682050924965413E+07,
2461316.500000000, A.D. 2026-Oct-03 00:00:00.0000, -4.324558665444813E+08, -1.815202571084799E+08, 9.988733225452766E+07,
2461323.500000000, A.D. 2026-Oct-10 00:00:00.0000, -4.274666704751860E+08, -1.897303285271809E+08, 1.029101716324999E+08,
2461330.500000000, A.D. 2026-Oct-17 00:00:00.0000, -4.222884951702944E+08, -1.978565118854263E+08, 1.058875099252715E+08,
2461337.500000000, A.D. 2026-Oct-24 00:00:00.0000, -4.169228596189297E+08, -2.058948574189913E+08, 1.088178376899519E+08,
2461344.500000000, A.D. 2026-Oct-31 00:00:00.0000, -4.113713804528479E+08, -2.138414230157904E+08, 1.116996543734263E+08,
2461351.500000000, A.D. 2026-Nov-07 00:00:00.0000, -4.056357722803055E+08, -2.216922766448965E+08, 1.145314691610982E+08,
2461358.500000000, A.D. 2026-Nov-14 00:00:00.0000, -3.997178473400042E+08, -2.294434980457684E+08, 1.173118018538619E+08,
2461365.500000000, A.D. 2026-Nov-21 00:00:00.0000, -3.936195162828369E+08, -2.370911789952308E+08, 1.200391839947489E+08,
2461372.500000000, A.D. 2026-Nov-28 00:00:00.0000, -3.873427910757992E+08, -2.446314251603383E+08, 1.227121600906567E+08,
2461379.500000000, A.D. 2026-Dec-05 00:00:00.0000, -3.808897864060177E+08, -2.520603601935775E+08, 1.253292885438249E+08,
2461386.500000000, A.D. 2026-Dec-12 00:00:00.0000, -3.742627194171571E+08, -2.593741289580587E+08, 1.278891425322473E+08,
2461393.500000000, A.D. 2026-Dec-19 00:00:00.0000, -3.674639096612883E+08, -2.665688998742368E+08, 1.303903110119211E+08,
2461400.500000000, A.D. 2026-Dec-26 00:00:00.0000, -3.604957794041452E+08, -2.736408672548868E+08, 1.328313997820718E+08,
2461407.500000000, A.D. 2027-Jan-02 00:00:00.0000, -3.533608540042830E+08, -2.805862538185854E+08, 1.352110325717353E+08,
2461414.500000000, A.D. 2027-Jan-09 00:00:00.0000, -3.460617622464716E+08, -2.874013133607446E+08, 1.375278521381565E+08,
2461421.500000000, A.D. 2027-Jan-16 00:00:00.0000, -3.386012365918267E+08, -2.940823335721007E+08, 1.397805213739791E+08,
2461428.500000000, A.D. 2027-Jan-23 00:00:00.0000, -3.309821132967907E+08, -3.006256390425988E+08, 1.419677244150849E+08,
2461435.500000000, A.D. 2027-Jan-30 00:00:00.0000, -3.232073322115483E+08, -3.070275944964507E+08, 1.440881677271280E+08,
2461442.500000000, A.D. 2027-Feb-06 00:00:00.0000, -3.152799358315857E+08, -3.132846079158240E+08, 1.461405811585844E+08,
2461449.500000000, A.D. 2027-Feb-13 00:00:00.0000, -3.072030680609250E+08, -3.193931323301147E+08, 1.481237191007386E+08,
2461456.500000000, A.D. 2027-Feb-20 00:00:00.0000, -2.989799750482795E+08, -3.253496670578567E+08, 1.500363619045628E+08,
2461463.500000000, A.D. 2027-Feb-27 00:00:00.0000, -2.906140066970634E+08, -3.311507616115260E+08, 1.518773171614690E+08,
2461470.500000000, A.D. 2027-Mar-06 00:00:00.0000, -2.821086158282025E+08, -3.367930203395317E+08, 1.536454207261893E+08,
2461477.500000000, A.D. 2027-Mar-13 00:00:00.0000, -2.734673565925165E+08, -3.422731057522385E+08, 1.553395377937500E+08,
2461484.500000000, A.D. 2027-Mar-20 00:00:00.0000, -2.646938832581792E+08, -3.475877413631499E+08, 1.569585640635839E+08,
2461491.500000000, A.D. 2027-Mar-27 00:00:00.0000, -2.557919491678180E+08, -3.527337145912641E+08, 1.585014269256290E+08,
2461498.500000000, A.D. 2027-Apr-03 00:00:00.0000, -2.467654056598626E+08, -3.577078797694322E+08, 1.599670866447465E+08,
2461505.500000000, A.D. 2027-Apr-10 00:00:00.0000, -2.376182008911822E+08, -3.625071612321015E+08, 1.613545375387591E+08,
2461512.500000000, A.D. 2027-Apr-17 00:00:00.0000, -2.283543785375092E+08, -3.671285564922517E+08, 1.626628091456511E+08,
2461519.500000000, A.D. 2027-Apr-24 00:00:00.0000, -2.189780762909161E+08, -3.715691395644897E+08, 1.638909673658032E+08,
2461526.500000000, A.D. 2027-May-01 00:00:00.0000, -2.094935238530932E+08, -3.758260644009352E+08, 1.650381155518742E+08,
2461533.500000000, A.D. 2027-May-08 00:00:00.0000, -1.999050401154693E+08, -3.798965676856771E+08, 1.661033955768299E+08,
2461540.500000000, A.D. 2027-May-15 00:00:00.0000, -1.902170310214625E+08, -3.837779700280638E+08, 1.670859890923969E+08,
2461547.500000000, A.D. 2027-May-22 00:00:00.0000, -1.804339896727853E+08, -3.874676781401511E+08, 1.679851189063061E+08,
2461554.500000000, A.D. 2027-May-29 00:00:00.0000, -1.705604953222577E+08, -3.909631894612857E+08, 1.688000500479299E+08,
2461561.500000000, A.D. 2027-Jun-05 00:00:00.0000, -1.606012103677701E+08, -3.942620960928947E+08, 1.695300906951006E+08,
2461568.500000000, A.D. 2027-Jun-12 00:00:00.0000, -1.505608773547630E+08, -3.973620876055436E+08, 1.701745931791407E+08,
2461575.500000000, A.D. 2027-Jun-19 00:00:00.0000, -1.404443163180385E+08, -4.002609536467406E+08, 1.707329550193350E+08,
2461582.500000000, A.D. 2027-Jun-26 00:00:00.0000, -1.302564221833767E+08, -4.029565866044176E+08, 1.712046199371896E+08,
2461589.500000000, A.D. 2027-Jul-03 00:00:00.0000, -1.200021620970077E+08, -4.054469843116857E+08, 1.715890788366689E+08,
2461596.500000000, A.D. 2027-Jul-10 00:00:00.0000, -1.096865726468277E+08, -4.077302527782806E+08, 1.718858707457959E+08,
2461603.500000000, A.D. 2027-Jul-17 00:00:00.0000, -9.931475694048415E+07, -4.098046089816878E+08, 1.720945837114468E+08,
2461610.500000000, A.D. 2027-Jul-24 00:00:00.0000, -8.889188138607015E+07, -4.116683837746748E+08, 1.722148556261834E+08,
2461617.500000000, A.D. 2027-Jul-31 00:00:00.0000, -7.842317176668876E+07, -4.133200246674139E+08, 1.722463749667707E+08,
2461624.500000000, A.D. 2027-Aug-07 00:00:00.0000, -6.791390881274872E+07, -4.147580973259094E+08, 1.721888815547278E+08,
2461631.500000000, A.D. 2027-Aug-14 00:00:00.0000, -5.736942557641463E+07, -4.159812860329618E+08, 1.720421675264706E+08,
2461638.500000000, A.D. 2027-Aug-21 00:00:00.0000, -4.679510599289662E+07, -4.169883964689361E+08, 1.718060781783877E+08,
2461645.500000000, A.D. 2027-Aug-28 00:00:00.0000, -3.619638120069407E+07, -4.177783596034030E+08, 1.714805124683754E+08,
2461652.500000000, A.D. 2027-Sep-04 00:00:00.0000, -2.557872480626329E+07, -4.183502341899506E+08, 1.710654234849573E+08,
2461659.500000000, A.D. 2027-Sep-11 00:00:00.0000, -1.494764849336996E+07, -4.187032085195693E+08, 1.705608189557976E+08,
2461666.500000000, A.D. 2027-Sep-18 00:00:00.0000, -4.308697849127219E+06, -4.188366020767020E+08, 1.699667617278834E+08,
2461673.500000000, A.D. 2027-Sep-25 00:00:00.0000, 6.332551816722787E+06, -4.187498671695495E+08, 1.692833701896507E+08,
2461680.500000000, A.D. 2027-Oct-02 00:00:00.0000, 1.697049972875782E+07, -4.184425905012226E+08, 1.685108186281457E+08,
2461687.500000000, A.D. 2027-Oct-09 00:00:00.0000, 2.759952399578844E+07, -4.179144946807921E+08, 1.676493375168771E+08,
2461694.500000000, A.D. 2027-Oct-16 00:00:00.0000, 3.821398611074232E+07, -4.171654397242094E+08, 1.666992137226981E+08,
2461701.500000000, A.D. 2027-Oct-23 00:00:00.0000, 4.880823585343963E+07, -4.161954245463365E+08, 1.656607906063876E+08,
2461708.500000000, A.D. 2027-Oct-30 00:00:00.0000, 5.937661696308882E+07, -4.150045878295051E+08, 1.645344680313503E+08,
2461715.500000000, A.D. 2027-Nov-06 00:00:00.0000, 6.991347240840934E+07, -4.135932071359260E+08, 1.633207024776308E+08,
2461722.500000000, A.D. 2027-Nov-13 00:00:00.0000, 8.041314726137087E+07, -4.119616983348150E+08, 1.620200072709434E+08,
2461729.500000000, A.D. 2027-Nov-20 00:00:00.0000, 9.086999206918988E+07, -4.101106175249386E+08, 1.606329524792732E+08,
2461736.500000000, A.D. 2027-Nov-27 00:00:00.0000, 1.012783683357020E+08, -4.080406624847851E+08, 1.591601645699953E+08,
2461743.500000000, A.D. 2027-Dec-04 00:00:00.0000, 1.116326540815026E+08, -4.057526727345107E+08, 1.576023260881283E+08,
2461750.500000000, A.D. 2027-Dec-11 00:00:00.0000, 1.219272489243780E+08, -4.032476291723791E+08, 1.559601753283229E+08,
2461757.500000000, A.D. 2027-Dec-18 00:00:00.0000, 1.321565789462390E+08, -4.005266536240581E+08, 1.542345059487256E+08,
2461764.500000000, A.D. 2027-Dec-25 00:00:00.0000, 1.423151014890492E+08, -3.975910083064156E+08, 1.524261665134415E+08,
2461771.500000000, A.D. 2028-Jan-01 00:00:00.0000, 1.523973099113905E+08, -3.944420951906531E+08, 1.505360599613801E+08,
$$EOE